NORAD_CAT_ID,OBJECT_NAME,OBJECT_TYPE,EPOCH,MEAN_MOTION,ECCENTRICITY,INCLINATION,RA_OF_ASC_NODE,ARG_OF_PERICENTER,MEAN_ANOMALY,BSTAR,MEAN_MOTION_DOT,MEAN_MOTION_DDOT,TLE_LINE0,TLE_LINE1,TLE_LINE2,SEMIMAJOR_AXIS,PERIOD,APOGEE,PERIGEE,DECAYED
51464.0,STARLINK-3189,PAYLOAD,2024-05-06 22:50:56,15.08843808,0.0001151,53.2181,54.6694,69.3888,290.7227,-0.00011939,-2.188e-05,0.0,0 STARLINK-3189,1 51464U 22010J   24127.95204608 -.00002188  00000-0 -11939-3 0  9992,2 51464  53.2181  54.6694 0001151  69.3888 290.7227 15.08843808125918,6917.869,95.437,540.53,538.938,0.0
51464.0,STARLINK-3189,PAYLOAD,2024-05-07 02:01:42,15.08849139,0.0001267,53.2182,54.0744,98.3099,261.8037,0.00012711,1.736e-05,0.0,0 STARLINK-3189,1 51464U 22010J   24128.08452420  .00001736  00000-0  12711-3 0  9999,2 51464  53.2182  54.0744 0001267  98.3099 261.8037 15.08849139125880,6917.852,95.437,540.594,538.841,0.0
51464.0,STARLINK-3189,PAYLOAD,2024-05-07 19:30:57,15.08843798,0.0001277,53.2186,50.8026,92.2309,267.883,0.00051159,7.864e-05,0.0,0 STARLINK-3189,1 51464U 22010J   24128.81316653  .00007864  00000-0  51159-3 0  9994,2 51464  53.2186  50.8026 0001277  92.2309 267.8830 15.08843798125993,6917.869,95.437,540.617,538.85,0.0
51464.0,STARLINK-3189,PAYLOAD,2024-05-07 22:41:43,15.08841066,0.0001235,53.2184,50.2077,92.1649,267.9485,0.00030424,4.558e-05,0.0,0 STARLINK-3189,1 51464U 22010J   24128.94564672  .00004558  00000-0  30424-3 0  9993,2 51464  53.2184  50.2077 0001235  92.1649 267.9485 15.08841066126063,6917.877,95.437,540.596,538.888,0.0
51464.0,STARLINK-3189,PAYLOAD,2024-05-08 11:24:48,15.08855746,0.0001321,53.2192,47.8287,92.3498,267.7645,0.00027343,4.068e-05,0.0,0 STARLINK-3189,1 51464U 22010J   24129.47555902  .00004068  00000-0  27343-3 0  9990,2 51464  53.2192  47.8287 0001321  92.3498 267.7645 15.08855746126142,6917.832,95.437,540.611,538.783,0.0
51464.0,STARLINK-3189,PAYLOAD,2024-05-08 22:32:31,15.08841933,0.000234,53.2186,45.7479,84.383,275.7429,0.00014759,2.062e-05,0.0,0 STARLINK-3189,1 51464U 22010J   24129.93924857  .00002062  00000-0  14759-3 0  9999,2 51464  53.2186  45.7479 0002340  84.3830 275.7429 15.08841933126218,6917.874,95.437,541.358,538.121,0.0
51464.0,STARLINK-3189,PAYLOAD,2024-05-09 03:18:40,15.08843466,0.0001657,53.2194,44.8576,90.6748,269.4434,0.00016625,2.359e-05,0.0,0 STARLINK-3189,1 51464U 22010J   24130.13796638  .00002359  00000-0  16625-3 0  9990,2 51464  53.2194  44.8576 0001657  90.6748 269.4434 15.08843466126199,6917.87,95.437,540.881,538.589,0.0
51464.0,STARLINK-3189,PAYLOAD,2024-05-09 11:15:35,15.08860345,0.0001673,53.219,43.3693,76.6854,283.4324,0.0004615,7.068e-05,0.0,0 STARLINK-3189,1 51464U 22010J   24130.46915921  .00007068  00000-0  46150-3 0  9992,2 51464  53.2190  43.3693 0001673  76.6854 283.4324 15.08860345126244,6917.818,95.436,540.841,538.526,0.0
51464.0,STARLINK-3189,PAYLOAD,2024-05-09 22:23:17,15.08840946,0.0001448,53.2173,41.2884,82.6198,277.4959,6.7705e-05,7.9e-06,0.0,0 STARLINK-3189,1 51464U 22010J   24130.93284532  .00000790  00000-0  67705-4 0  9996,2 51464  53.2173  41.2884 0001448  82.6198 277.4959 15.08840946126367,6917.877,95.437,540.744,538.741,0.0
51464.0,STARLINK-3189,PAYLOAD,2024-05-10 01:34:04,15.08849618,0.0001531,53.2186,40.6927,80.521,279.5955,0.00039595,6.021e-05,0.0,0 STARLINK-3189,1 51464U 22010J   24131.06532423  .00006021  00000-0  39595-3 0  9994,2 51464  53.2186  40.6927 0001531  80.5210 279.5955 15.08849618126338,6917.851,95.437,540.775,538.657,0.0
51464.0,STARLINK-3189,PAYLOAD,2024-05-10 11:06:22,15.08860501,0.0001468,53.2187,38.9107,87.1657,272.9503,0.00088653,0.00013857,0.0,0 STARLINK-3189,1 51464U 22010J   24131.46276025  .00013857  00000-0  88653-3 0  9995,2 51464  53.2187  38.9107 0001468  87.1657 272.9503 15.08860501126448,6917.818,95.436,540.698,538.667,0.0
51464.0,STARLINK-3189,PAYLOAD,2024-05-10 22:14:04,15.0885369,0.0001455,53.2187,36.8264,93.3086,266.8073,0.0013437,0.0002117,0.0,0 STARLINK-3189,1 51464U 22010J   24131.92644434  .00021170  00000-0  13437-2 0  9993,2 51464  53.2187  36.8264 0001455  93.3086 266.8073 15.08853690126513,6917.839,95.437,540.71,538.697,0.0
51464.0,STARLINK-3189,PAYLOAD,2024-05-11 03:00:14,15.08875971,0.0001646,53.2187,35.9343,99.3612,260.7566,0.0038624,0.00061782,0.0,0 STARLINK-3189,1 51464U 22010J   24132.12516266  .00061782  00000-0  38624-2 0  9995,2 51464  53.2187  35.9343 0001646  99.3612 260.7566 15.08875971126497,6917.77,95.435,540.774,538.497,0.0
51464.0,STARLINK-3189,PAYLOAD,2024-05-11 10:57:07,15.09005831,9.28e-05,53.2158,34.452,107.2164,252.8929,0.0082567,0.0013424,0.0,0 STARLINK-3189,1 51464U 22010J   24132.45633213  .00134240  00000-0  82567-2 0  9998,2 51464  53.2158  34.4520 0000928 107.2164 252.8929 15.09005831126541,6917.374,95.427,539.88,538.597,0.0
51464.0,STARLINK-3189,PAYLOAD,2024-05-11 17:18:36,15.0907083,0.0002015,53.2169,33.261,93.8794,266.2429,0.0049884,0.00080519,0.0,0 STARLINK-3189,1 51464U 22010J   24132.72125648  .00080519  00000-0  49884-2 0  9990,2 51464  53.2169  33.2610 0002015  93.8794 266.2429 15.09070830126587,6917.175,95.423,540.434,537.646,0.0
51464.0,STARLINK-3189,PAYLOAD,2024-05-11 22:04:46,15.08862651,0.0002139,53.2172,32.3686,15.5315,344.5742,0.00044696,6.837e-05,0.0,0 STARLINK-3189,1 51464U 22010J   24132.91998211  .00006837  00000-0  44696-3 0  9993,2 51464  53.2172  32.3686 0002139  15.5315 344.5742 15.08862651126667,6917.811,95.436,541.156,538.196,0.0
51464.0,STARLINK-3189,PAYLOAD,2024-05-12 04:26:20,15.08772339,0.0001584,53.2168,31.179,80.7728,279.3443,-0.0067398,-0.00105785,0.0,0 STARLINK-3189,1 51464U 22010J   24133.18496123 -.00105785  00000-0 -67398-2 0  9995,2 51464  53.2168  31.1790 0001584  80.7728 279.3443 15.08772339126655,6918.087,95.442,541.048,538.856,0.0
51464.0,STARLINK-3189,PAYLOAD,2024-05-12 10:47:55,15.08728819,0.0001433,53.2172,29.9894,71.1564,288.9583,-0.0019047,-0.00030382,0.0,0 STARLINK-3189,1 51464U 22010J   24133.44994643 -.00030382  00000-0 -19047-2 0  9992,2 51464  53.2172  29.9894 0001433  71.1564 288.9583 15.08728819126740,6918.22,95.445,541.077,539.094,0.0
51464.0,STARLINK-3189,PAYLOAD,2024-05-12 21:55:41,15.08729981,0.0001429,53.2173,27.9081,71.7098,288.405,0.0030028,0.00047681,0.0,0 STARLINK-3189,1 51464U 22010J   24133.91366991  .00047681  00000-0  30028-2 0  9993,2 51464  53.2173  27.9081 0001429  71.7098 288.4050 15.08729981126767,6918.217,95.445,541.07,539.093,0.0
51464.0,STARLINK-3189,PAYLOAD,2024-05-13 02:41:51,15.0873851,0.0001428,53.2171,27.0163,70.8411,289.2736,0.0022949,0.00036322,0.0,0 STARLINK-3189,1 51464U 22010J   24134.11240392  .00036322  00000-0  22949-2 0  9995,2 51464  53.2171  27.0163 0001428  70.8411 289.2736 15.08738510126796,6918.191,95.444,541.044,539.068,0.0
51464.0,STARLINK-3189,PAYLOAD,2024-05-14 15:15:42,15.08940932,0.0001197,53.2183,20.1789,71.1769,288.9353,0.0038407,0.00061541,0.0,0 STARLINK-3189,1 51464U 22010J   24135.63591382  .00061541  00000-0  38407-2 0  9998,2 51464  53.2183  20.1789 0001197  71.1769 288.9353 15.08940932127076,6917.572,95.431,540.265,538.609,0.0
51464.0,STARLINK-3189,PAYLOAD,2024-05-14 23:12:37,15.08887043,0.000137,53.2184,18.688,79.4747,280.64,0.0011406,0.00017935,0.0,0 STARLINK-3189,1 51464U 22010J   24135.96710490  .00017935  00000-0  11406-2 0  9995,2 51464  53.2184  18.6880 0001370  79.4747 280.6400 15.08887043127122,6917.737,95.435,540.549,538.654,0.0
51464.0,STARLINK-3189,PAYLOAD,2024-05-15 02:23:23,15.08897456,0.0001345,53.2182,18.0936,82.3895,277.725,0.0013951,0.0002202,0.0,0 STARLINK-3189,1 51464U 22010J   24136.09957997  .00022020  00000-0  13951-2 0  9993,2 51464  53.2182  18.0936 0001345  82.3895 277.7250 15.08897456127090,6917.705,95.434,540.5,538.639,0.0
51464.0,STARLINK-3189,PAYLOAD,2024-05-15 08:44:55,15.08916624,0.0001359,53.2193,16.9041,81.6817,278.433,0.0017283,0.00027383,0.0,0 STARLINK-3189,1 51464U 22010J   24136.36452760  .00027383  00000-0  17283-2 0  9990,2 51464  53.2193  16.9041 0001359  81.6817 278.4330 15.08916624127183,6917.646,95.433,540.451,538.571,0.0
51464.0,STARLINK-3189,PAYLOAD,2024-05-15 21:28:00,15.08850533,0.0001406,53.2182,14.5261,111.9355,248.1787,0.00070615,0.00010971,0.0,0 STARLINK-3189,1 51464U 22010J   24136.89445225  .00010971  00000-0  70615-3 0  9990,2 51464  53.2182  14.5261 0001406 111.9355 248.1787 15.08850533127216,6917.848,95.437,540.686,538.741,0.0
51464.0,STARLINK-3189,PAYLOAD,2024-05-15 23:03:23,15.08855951,0.000137,53.2182,14.2293,109.8809,250.2331,0.0014334,0.00022608,0.0,0 STARLINK-3189,1 51464U 22010J   24136.96069157  .00022608  00000-0  14334-2 0  9999,2 51464  53.2182  14.2293 0001370 109.8809 250.2331 15.08855951127272,6917.832,95.437,540.644,538.749,0.0
51464.0,STARLINK-3189,PAYLOAD,2024-05-16 08:35:42,15.08880911,0.0001016,53.2177,12.4418,83.0592,277.0516,0.0023667,0.00037622,0.0,0 STARLINK-3189,1 51464U 22010J   24137.35812525  .00037622  00000-0  23667-2 0  9999,2 51464  53.2177  12.4418 0001016  83.0592 277.0516 15.08880911127281,6917.755,95.435,540.323,538.917,0.0
51464.0,STARLINK-3189,PAYLOAD,2024-05-17 00:29:34,15.08857102,0.0002796,53.2179,9.4708,84.6822,275.4489,0.0024652,0.00039184,0.0,0 STARLINK-3189,1 51464U 22010J   24138.02053501  .00039184  00000-0  24652-2 0  9995,2 51464  53.2179   9.4708 0002796  84.6822 275.4489 15.08857102127388,6917.828,95.436,541.627,537.759,0.0
51464.0,STARLINK-3189,PAYLOAD,2024-05-17 22:44:58,15.0885873,0.0001333,53.2171,5.3061,84.6546,275.4598,0.0020439,0.00032407,0.0,0 STARLINK-3189,1 51464U 22010J   24138.94789417  .00032407  00000-0  20439-2 0  9998,2 51464  53.2171   5.3061 0001333  84.6546 275.4598 15.08858730127576,6917.823,95.436,540.61,538.766,0.0
51464.0,STARLINK-3189,PAYLOAD,2024-05-18 08:17:16,15.08851342,0.0001316,53.2171,3.5221,99.4963,260.6178,0.0020335,0.00032234,0.0,0 STARLINK-3189,1 51464U 22010J   24139.34533287  .00032234  00000-0  20335-2 0  9998,2 51464  53.2171   3.5221 0001316  99.4963 260.6178 15.08851342127585,6917.846,95.437,540.621,538.8,0.0
